[
    {
        "Altitude(m)": 610399.5723647536,
        "Argument of Periapsis(deg)": 0.0,
        "Eccentricity": 0.0,
        "Inclination(deg)": 60.0,
        "Latitude(deg)": 52.11145502432395,
        "Longitude(deg)": 67.58422662130157,
        "Mean Anomaly(deg)": 65.45450000000001,
        "RAAN(deg)": 120.0,
        "Satellite Name": "Test1 532",
        "Satellite Number": 532,
        "Semi-Major Axis(m)": 6980739.136638005,
        "Time(s)": 0
    },
    {
        "Altitude(m)": 610481.7236111354,
        "Argument of Periapsis(deg)": 0.00010418945913296404,
        "Eccentricity": 0.0,
        "Inclination(deg)": 60.0,
        "Latitude(deg)": 52.471058103061864,
        "Longitude(deg)": 68.36636393880082,
        "Mean Anomaly(deg)": 66.07460614546181,
        "RAAN(deg)": 119.99957995086024,
        "Satellite Name": "Test1 532",
        "Satellite Number": 532,
        "Semi-Major Axis(m)": 6980739.136638005,
        "Time(s)": 10
    }
]